     2              NAVIGATION DATA                         RINEX VERSION / TYPE
CCRINEXN V1.6.0 UX  CDDIS               31-OCT-03 02:48     PGM / RUN BY / DATE 
IGS BROADCAST EPHEMERIS FILE                                COMMENT             
    0.4005D-07  0.1490D-07 -0.1192D-06  0.5960D-07          ION ALPHA           
    0.1516D+06 -0.4915D+05 -0.1311D+06 -0.1966D+06          ION BETA            
    0.651925802231D-08 0.266453525910D-14   503808     1242 DELTA-UTC: A0,A1,T,W
    13                                                      LEAP SECONDS        
                                                            END OF HEADER       
10 03 10 30 22  0  0.0 0.335653312504D-04 0.568434188608D-12 0.000000000000D+00
    0.137000000000D+03 0.306562500000D+02 0.410374236591D-08 0.305776667815D+01
    0.153481960297D-05 0.558781542350D-02 0.340864062309D-05 0.515359659195D+04
    0.424800000000D+06-0.912696123123D-07-0.569121450284D+00 0.186264514923D-08
    0.980979208510D+00 0.325843750000D+03 0.231874856233D+00-0.802319134098D-08
   -0.321441960777D-11 0.100000000000D+01 0.124200000000D+04 0.000000000000D+00
    0.400000000000D+01 0.000000000000D+00-0.232830643654D-08 0.393000000000D+03
    0.417618000000D+06 0.400000000000D+01 0.000000000000D+00 0.000000000000D+00
13 03 10 30 22  0  0.0-0.317529775202D-04-0.113686837722D-12 0.000000000000D+00
    0.177000000000D+03-0.106281250000D+03 0.393480675764D-08-0.302990439538D+01
   -0.541098415852D-05 0.196601648349D-02 0.524334609509D-05 0.515377717209D+04
    0.424800000000D+06 0.111758708954D-07 0.472808645418D+00 0.447034835815D-07
    0.980731712030D+00 0.287375000000D+03 0.723041464596D+00-0.790425781549D-08
    0.107147320259D-10 0.000000000000D+00 0.124200000000D+04 0.100000000000D+01
    0.280000000000D+01 0.000000000000D+00-0.111758708954D-07 0.362496000000D+06
    0.418668000000D+06 0.000000000000D+00 0.000000000000D+00 0.000000000000D+00
14 03 10 30 22  0  0.0-0.192914158106D-04 0.341060513165D-12 0.000000000000D+00
    0.220000000000D+03-0.892812500000D+02 0.403516819958D-08 0.132313803863D+01
   -0.455975532532D-05 0.133916118648D-02 0.610947608948D-05 0.515374798775D+04
    0.424800000000D+06-0.204890966415D-07 0.464652119334D+00-0.633299350739D-07
    0.975229797093D+00 0.266593750000D+03-0.133686570639D+01-0.793747378935D-08
    0.571452364595D-10 0.100000000000D+01 0.124200000000D+04 0.000000000000D+00
    0.340000000000D+01 0.000000000000D+00-0.102445483208D-07 0.476000000000D+03
    0.423258000000D+06 0.400000000000D+01 0.000000000000D+00 0.000000000000D+00
15 03 10 30 22  0  0.0 0.179373193532D-03 0.511590769747D-11 0.000000000000D+00
    0.120000000000D+03 0.889062500000D+02 0.424660528964D-08-0.145624778725D+00
    0.454857945442D-05 0.847064424306D-02 0.682286918163D-05 0.515376233101D+04
    0.424800000000D+06-0.763684511185D-07-0.155195865107D+01-0.126659870148D-06
    0.969512634241D+00 0.254156250000D+03 0.215818613629D+01-0.805569300155D-08
   -0.139648667630D-09 0.100000000000D+01 0.124200000000D+04 0.000000000000D+00
    0.340000000000D+01 0.000000000000D+00-0.232830643654D-08 0.888000000000D+03
    0.417618000000D+06 0.400000000000D+01 0.000000000000D+00 0.000000000000D+00
16 03 10 30 22  0  0.0 0.801077112556D-05 0.250111042988D-11 0.000000000000D+00
    0.980000000000D+02-0.312500000000D+00 0.485698814501D-08-0.107260000646D+01
    0.838190317154D-07 0.203674181830D-02 0.770948827267D-05 0.515369074059D+04
    0.424800000000D+06-0.558793544769D-07 0.255807305970D+01 0.409781932831D-07
    0.961150521354D+00 0.234500000000D+03-0.161444574122D+01-0.801461919053D-08
    0.162149613181D-09 0.100000000000D+01 0.124200000000D+04 0.000000000000D+00
    0.340000000000D+01 0.000000000000D+00-0.931322574615D-08 0.354000000000D+03
    0.417618000000D+06 0.400000000000D+01 0.000000000000D+00 0.000000000000D+00
17 03 10 30 22  0  0.0 0.107452739030D-03-0.345607986674D-10 0.000000000000D+00
    0.232000000000D+03 0.781875000000D+02 0.438946855327D-08 0.213790031796D+00
    0.414997339249D-05 0.159130671527D-01 0.691972672939D-05 0.515305290031D+04
    0.424800000000D+06 0.225380063057D-06-0.151058230120D+01 0.154599547386D-06
    0.971570426014D+00 0.251125000000D+03-0.284540718860D+01-0.820069873488D-08
   -0.191079387795D-09 0.000000000000D+00 0.124200000000D+04 0.100000000000D+01
    0.200000000000D+01 0.000000000000D+00-0.139698386192D-08 0.475136000000D+06
    0.417618000000D+06 0.000000000000D+00 0.000000000000D+00 0.000000000000D+00
18 03 10 30 22  0  0.0 0.588875263929D-05-0.136424205266D-11 0.000000000000D+00
    0.106000000000D+03 0.103750000000D+02 0.433518065890D-08-0.164302670737D+01
    0.644475221634D-06 0.442433229182D-02 0.312551856041D-05 0.515362351608D+04
    0.424800000000D+06-0.242143869400D-07-0.533333386036D+00-0.596046447754D-07
    0.964493751448D+00 0.322500000000D+03-0.298951337643D+01-0.816605449927D-08
    0.271439884458D-10 0.100000000000D+01 0.124200000000D+04 0.000000000000D+00
    0.340000000000D+01 0.000000000000D+00-0.102445483208D-07 0.618000000000D+03
    0.417618000000D+06 0.400000000000D+01 0.000000000000D+00 0.000000000000D+00
20 03 10 30 22  0  0.0-0.205930322409D-03 0.147792889038D-11 0.000000000000D+00
    0.221000000000D+03 0.287500000000D+02 0.444375652887D-08-0.243044389374D+01
    0.149756669998D-05 0.199655303732D-02 0.272318720818D-05 0.515378780937D+04
    0.424800000000D+06 0.372529029846D-07-0.585551910405D+00-0.409781932831D-07
    0.964636463495D+00 0.332375000000D+03 0.173360365182D+01-0.826891586211D-08
   -0.453590322429D-10 0.000000000000D+00 0.124200000000D+04 0.100000000000D+01
    0.200000000000D+01 0.000000000000D+00-0.698491930962D-08 0.452608000000D+06
    0.417618000000D+06 0.000000000000D+00 0.000000000000D+00 0.000000000000D+00
21 03 10 30 22  0  0.0 0.608796253800D-04 0.306954461848D-11 0.000000000000D+00
    0.213000000000D+03 0.791875000000D+02 0.450375914340D-08-0.188503141695D+00
    0.399723649025D-05 0.803332030773D-02 0.671669840813D-05 0.515372806549D+04
    0.424800000000D+06 0.134110450745D-06-0.157698763017D+01-0.614672899246D-07
    0.956158522606D+00 0.249718750000D+03 0.292976988820D+01-0.818069789688D-08
   -0.198222535608D-09 0.100000000000D+01 0.124200000000D+04 0.000000000000D+00
    0.240000000000D+01 0.000000000000D+00-0.121071934700D-07 0.213000000000D+03
    0.417618000000D+06 0.400000000000D+01 0.000000000000D+00 0.000000000000D+00
23 03 10 30 22  0  0.0 0.398256815970D-04 0.909494701773D-12 0.000000000000D+00
    0.232000000000D+03 0.890625000000D+01 0.387408993774D-08 0.259253330489D+01
    0.404193997383D-06 0.164785357192D-01 0.248290598392D-05 0.515386246109D+04
    0.424800000000D+06 0.212341547012D-06-0.518180702935D+00-0.707805156708D-07
    0.984647893988D+00 0.340437500000D+03-0.164490384338D+01-0.770139241268D-08
   -0.810748065905D-10 0.100000000000D+01 0.124200000000D+04 0.000000000000D+00
    0.240000000000D+01 0.000000000000D+00-0.279396772385D-08 0.232000000000D+03
    0.417618000000D+06 0.400000000000D+01 0.000000000000D+00 0.000000000000D+00
24 03 10 30 22  0  0.0 0.713644549251D-04 0.284217094304D-11 0.000000000000D+00
    0.209000000000D+03 0.907187500000D+02 0.423124767702D-08-0.392444430086D+00
    0.474229454994D-05 0.971083319746D-02 0.781565904617D-05 0.515378769302D+04
    0.424800000000D+06-0.135973095894D-06-0.157839931832D+01 0.651925802231D-07
    0.972829555216D+00 0.238781250000D+03-0.145820694031D+01-0.807426489697D-08
   -0.133934150323D-09 0.000000000000D+00 0.124200000000D+04 0.100000000000D+01
    0.200000000000D+01 0.000000000000D+00-0.139698386192D-08 0.428032000000D+06
    0.417618000000D+06 0.000000000000D+00 0.000000000000D+00 0.000000000000D+00
25 03 10 30 22  0  0.0 0.544325448573D-04 0.682121026330D-12 0.000000000000D+00
    0.410000000000D+02-0.578750000000D+02 0.486377402428D-08 0.304858145148D+00
   -0.321120023727D-05 0.106609943323D-01 0.922940671444D-05 0.515379882240D+04
    0.424800000000D+06-0.236555933952D-06 0.143399931802D+01-0.745058059692D-07
    0.942520259615D+00 0.192343750000D+03-0.166909554473D+01-0.827105880851D-08
    0.321799118511D-09 0.000000000000D+00 0.124200000000D+04 0.100000000000D+01
    0.280000000000D+01 0.000000000000D+00-0.745058059692D-08 0.839680000000D+05
    0.417618000000D+06 0.000000000000D+00 0.000000000000D+00 0.000000000000D+00
26 03 10 30 22  0  0.0 0.504711642861D-03-0.534328137292D-11 0.000000000000D+00
    0.140000000000D+02-0.820312500000D+02 0.405231181944D-08 0.135266204419D+01
   -0.424124300480D-05 0.147294217022D-01 0.534765422344D-05 0.515360639954D+04
    0.424800000000D+06-0.109896063805D-06 0.475977258683D+00 0.111758708954D-06
    0.979137982741D+00 0.290031250000D+03 0.532605609161D+00-0.801890553959D-08
   -0.147148987439D-09 0.100000000000D+01 0.124200000000D+04 0.000000000000D+00
    0.340000000000D+01 0.000000000000D+00-0.651925802231D-08 0.270000000000D+03
    0.417678000000D+06 0.400000000000D+01 0.000000000000D+00 0.000000000000D+00
27 03 10 30 22  0  0.0 0.767142046243D-03 0.253521648119D-10 0.000000000000D+00
    0.192000000000D+03-0.661562500000D+02 0.468340921600D-08-0.120300467034D+01
   -0.322610139847D-05 0.175208294531D-01 0.871159136295D-05 0.515361032677D+04
    0.424800000000D+06 0.411644577980D-06 0.146136963607D+01 0.244006514549D-06
    0.947043969508D+00 0.198218750000D+03-0.224806165396D+01-0.799426125297D-08
    0.393587828995D-09 0.100000000000D+01 0.124200000000D+04 0.000000000000D+00
    0.240000000000D+01 0.000000000000D+00-0.419095158577D-08 0.192000000000D+03
    0.417618000000D+06 0.400000000000D+01 0.000000000000D+00 0.000000000000D+00
